[
    {
        "Altitude(m)": 605459.0119669117,
        "Argument of Periapsis(deg)": 0.0,
        "Eccentricity": 0.0,
        "Inclination(deg)": 60.0,
        "Latitude(deg)": 27.988159352790735,
        "Longitude(deg)": -37.201457963548705,
        "Mean Anomaly(deg)": 32.7273,
        "RAAN(deg)": 45.0,
        "Satellite Name": "Test1 200",
        "Satellite Number": 200,
        "Semi-Major Axis(m)": 6980739.136638005,
        "Time(s)": 0
    },
    {
        "Altitude(m)": 605535.802942833,
        "Argument of Periapsis(deg)": 0.00010418945913296404,
        "Eccentricity": 0.0,
        "Inclination(deg)": 60.0,
        "Latitude(deg)": 28.50128937366843,
        "Longitude(deg)": -36.84451399636053,
        "Mean Anomaly(deg)": 33.347406145461825,
        "RAAN(deg)": 44.99957995086026,
        "Satellite Name": "Test1 200",
        "Satellite Number": 200,
        "Semi-Major Axis(m)": 6980739.136638005,
        "Time(s)": 10
    }
]